[{"OBJECT_NAME":"STARLINK-32772","OBJECT_ID":"2025-034E","EPOCH":"2026-03-09T22:16:01.868160","MEAN_MOTION":15.30212099,"ECCENTRICITY":9.635e-5,"INCLINATION":53.1583,"RA_OF_ASC_NODE":256.9941,"ARG_OF_PERICENTER":72.0793,"MEAN_ANOMALY":288.0313,"EPHEMERIS_TYPE":0,"CLASSIFICATION_TYPE":"U","NORAD_CAT_ID":63033,"ELEMENT_SET_NO":999,"REV_AT_EPOCH":5912,"BSTAR":0.00077263281,"MEAN_MOTION_DOT":0.00022602,"MEAN_MOTION_DDOT":0},{"OBJECT_NAME":"COSMOS 2251 DEB","OBJECT_ID":"1993-036RB","EPOCH":"2026-03-09T01:08:04.800192","MEAN_MOTION":15.30699894,"ECCENTRICITY":0.00252965,"INCLINATION":73.7308,"RA_OF_ASC_NODE":76.2904,"ARG_OF_PERICENTER":263.9966,"MEAN_ANOMALY":95.8352,"EPHEMERIS_TYPE":0,"CLASSIFICATION_TYPE":"U","NORAD_CAT_ID":34410,"ELEMENT_SET_NO":999,"REV_AT_EPOCH":91089,"BSTAR":0.003018315,"MEAN_MOTION_DOT":0.00091531,"MEAN_MOTION_DDOT":0}]
